{"fetched_at":"2026-07-05T16:24:40.369Z","source":"https://celestrak.org/NORAD/elements/gp.php?NAME=SENTINEL&FORMAT=JSON","constellation":"sentinel","records":[{"OBJECT_NAME":"SENTINEL-1A","OBJECT_ID":"2014-016A","EPOCH":"2026-07-05T06:21:03.487680","CLASSIFICATION_TYPE":"U","MEAN_MOTION":14.5920022,"ECCENTRICITY":0.00013793,"INCLINATION":98.1778,"RA_OF_ASC_NODE":193.5337,"ARG_OF_PERICENTER":86.0922,"MEAN_ANOMALY":274.0435,"EPHEMERIS_TYPE":0,"NORAD_CAT_ID":39634,"ELEMENT_SET_NO":999,"REV_AT_EPOCH":65265,"BSTAR":0.000025978629,"MEAN_MOTION_DOT":7.7e-7,"MEAN_MOTION_DDOT":0},{"OBJECT_NAME":"SENTINEL-2A","OBJECT_ID":"2015-028A","EPOCH":"2026-07-05T07:50:16.207008","CLASSIFICATION_TYPE":"U","MEAN_MOTION":14.30820915,"ECCENTRICITY":0.00012272,"INCLINATION":98.5678,"RA_OF_ASC_NODE":260.9208,"ARG_OF_PERICENTER":96.1871,"MEAN_ANOMALY":263.9452,"EPHEMERIS_TYPE":0,"NORAD_CAT_ID":40697,"ELEMENT_SET_NO":999,"REV_AT_EPOCH":57632,"BSTAR":0.000094894192,"MEAN_MOTION_DOT":0.00000205,"MEAN_MOTION_DDOT":0},{"OBJECT_NAME":"SENTINEL-3A","OBJECT_ID":"2016-011A","EPOCH":"2026-07-05T04:04:32.339136","CLASSIFICATION_TYPE":"U","MEAN_MOTION":14.26737992,"ECCENTRICITY":0.00014235,"INCLINATION":98.6241,"RA_OF_ASC_NODE":253.2946,"ARG_OF_PERICENTER":93.421,"MEAN_ANOMALY":266.7134,"EPHEMERIS_TYPE":0,"NORAD_CAT_ID":41335,"ELEMENT_SET_NO":999,"REV_AT_EPOCH":54062,"BSTAR":0.000084197114,"MEAN_MOTION_DOT":0.0000016,"MEAN_MOTION_DDOT":0},{"OBJECT_NAME":"SENTINEL-2B","OBJECT_ID":"2017-013A","EPOCH":"2026-07-05T07:39:53.848800","CLASSIFICATION_TYPE":"U","MEAN_MOTION":14.30813081,"ECCENTRICITY":0.00012194,"INCLINATION":98.5686,"RA_OF_ASC_NODE":260.8379,"ARG_OF_PERICENTER":89.3506,"MEAN_ANOMALY":270.7817,"EPHEMERIS_TYPE":0,"NORAD_CAT_ID":42063,"ELEMENT_SET_NO":999,"REV_AT_EPOCH":48723,"BSTAR":0.000050607216,"MEAN_MOTION_DOT":8.9e-7,"MEAN_MOTION_DDOT":0},{"OBJECT_NAME":"SENTINEL-5P","OBJECT_ID":"2017-064A","EPOCH":"2026-07-04T19:45:38.621088","CLASSIFICATION_TYPE":"U","MEAN_MOTION":14.19522247,"ECCENTRICITY":0.0001088,"INCLINATION":98.7928,"RA_OF_ASC_NODE":127.8294,"ARG_OF_PERICENTER":92.0337,"MEAN_ANOMALY":268.0964,"EPHEMERIS_TYPE":0,"NORAD_CAT_ID":42969,"ELEMENT_SET_NO":999,"REV_AT_EPOCH":45206,"BSTAR":0.000067553483,"MEAN_MOTION_DOT":9.8e-7,"MEAN_MOTION_DDOT":0},{"OBJECT_NAME":"SENTINEL-3B","OBJECT_ID":"2018-039A","EPOCH":"2026-07-05T05:06:50.234688","CLASSIFICATION_TYPE":"U","MEAN_MOTION":14.26740289,"ECCENTRICITY":0.00009206,"INCLINATION":98.624,"RA_OF_ASC_NODE":253.4861,"ARG_OF_PERICENTER":117.0798,"MEAN_ANOMALY":243.0476,"EPHEMERIS_TYPE":0,"NORAD_CAT_ID":43437,"ELEMENT_SET_NO":999,"REV_AT_EPOCH":42669,"BSTAR":0.000085602827,"MEAN_MOTION_DOT":0.00000164,"MEAN_MOTION_DDOT":0},{"OBJECT_NAME":"SENTINEL-6A","OBJECT_ID":"2020-086A","EPOCH":"2026-07-04T11:54:50.478912","CLASSIFICATION_TYPE":"U","MEAN_MOTION":12.80930021,"ECCENTRICITY":0.00078375,"INCLINATION":66.0414,"RA_OF_ASC_NODE":99.1022,"ARG_OF_PERICENTER":270.0559,"MEAN_ANOMALY":89.9558,"EPHEMERIS_TYPE":0,"NORAD_CAT_ID":46984,"ELEMENT_SET_NO":999,"REV_AT_EPOCH":26254,"BSTAR":0.000098233676,"MEAN_MOTION_DOT":-3.8e-7,"MEAN_MOTION_DDOT":0},{"OBJECT_NAME":"SENTINEL-2C","OBJECT_ID":"2024-157A","EPOCH":"2026-07-05T05:08:52.437120","CLASSIFICATION_TYPE":"U","MEAN_MOTION":14.30813996,"ECCENTRICITY":0.00009359,"INCLINATION":98.5686,"RA_OF_ASC_NODE":260.7412,"ARG_OF_PERICENTER":94.1003,"MEAN_ANOMALY":266.0286,"EPHEMERIS_TYPE":0,"NORAD_CAT_ID":60989,"ELEMENT_SET_NO":999,"REV_AT_EPOCH":9556,"BSTAR":0.000085755342,"MEAN_MOTION_DOT":0.00000181,"MEAN_MOTION_DDOT":0},{"OBJECT_NAME":"SENTINEL-1C","OBJECT_ID":"2024-235A","EPOCH":"2026-07-05T07:17:46.864896","CLASSIFICATION_TYPE":"U","MEAN_MOTION":14.59197631,"ECCENTRICITY":0.00012913,"INCLINATION":98.1823,"RA_OF_ASC_NODE":193.3537,"ARG_OF_PERICENTER":90.6275,"MEAN_ANOMALY":269.5073,"EPHEMERIS_TYPE":0,"NORAD_CAT_ID":62261,"ELEMENT_SET_NO":999,"REV_AT_EPOCH":8405,"BSTAR":-0.000014097733,"MEAN_MOTION_DOT":-0.00000112,"MEAN_MOTION_DDOT":0},{"OBJECT_NAME":"SENTINEL-1D","OBJECT_ID":"2025-251A","EPOCH":"2026-07-04T23:53:39.434784","CLASSIFICATION_TYPE":"U","MEAN_MOTION":14.59197335,"ECCENTRICITY":0.00013065,"INCLINATION":98.1835,"RA_OF_ASC_NODE":193.1045,"ARG_OF_PERICENTER":90.7095,"MEAN_ANOMALY":269.4254,"EPHEMERIS_TYPE":0,"NORAD_CAT_ID":66315,"ELEMENT_SET_NO":999,"REV_AT_EPOCH":3532,"BSTAR":-0.000015563546,"MEAN_MOTION_DOT":-0.00000119,"MEAN_MOTION_DDOT":0},{"OBJECT_NAME":"SENTINEL-6B","OBJECT_ID":"2025-264A","EPOCH":"2026-07-04T17:32:37.816800","CLASSIFICATION_TYPE":"U","MEAN_MOTION":12.80930074,"ECCENTRICITY":0.00079163,"INCLINATION":66.0414,"RA_OF_ASC_NODE":98.7411,"ARG_OF_PERICENTER":268.9242,"MEAN_ANOMALY":91.0867,"EPHEMERIS_TYPE":0,"NORAD_CAT_ID":66514,"ELEMENT_SET_NO":999,"REV_AT_EPOCH":2941,"BSTAR":0.00011456746,"MEAN_MOTION_DOT":-3.5e-7,"MEAN_MOTION_DDOT":0}]}
